{
  "type": "FeatureCollection",
  "features": [
    {
      "type": "Feature",
      "properties": {
        "norad_id": 31990,
        "name": "FENGYUN 1C DEB",
        "group": "fengyun-1c-debris",
        "lat": 56.24377296734509,
        "lon": -145.21857684052915,
        "alt_km": 872.026515031358,
        "timestamp": "2025-12-25T03:55:56.643317+00:00",
        "meta_object_name": "FENGYUN 1C DEB",
        "meta_object_id": "1999-025CPT",
        "meta_epoch": "2025-12-22T08:11:24.407808",
        "meta_mean_motion": 13.5720727,
        "meta_eccentricity": 0.02604471,
        "meta_inclination": 99.1597,
        "meta_ra_of_asc_node": 18.1807,
        "meta_arg_of_pericenter": 160.0057,
        "meta_mean_anomaly": 220.2158,
        "meta_ephemeris_type": 0,
        "meta_classification_type": "U",
        "meta_norad_cat_id": 31990,
        "meta_element_set_no": 999,
        "meta_rev_at_epoch": 62902,
        "meta_bstar": 0.00026124298,
        "meta_mean_motion_dot": 1.93e-06,
        "meta_mean_motion_ddot": 0,
        "tle_line1": "1 31990U 99025CPT 25356.34125472  .00000193  00000+0  26124-3 0  9996",
        "tle_line2": "2 31990  99.1597  18.1807 0260447 160.0057 220.2158 13.57207270629024"
      },
      "geometry": {
        "type": "Point",
        "coordinates": [
          -145.21857684052915,
          56.24377296734509
        ]
      }
    },
    {
      "type": "Feature",
      "properties": {
        "norad_id": 31991,
        "name": "FENGYUN 1C DEB",
        "group": "fengyun-1c-debris",
        "lat": -34.25808862822398,
        "lon": -163.69070280030792,
        "alt_km": 936.9210269451896,
        "timestamp": "2025-12-25T03:55:56.643327+00:00",
        "meta_object_name": "FENGYUN 1C DEB",
        "meta_object_id": "1999-025CPU",
        "meta_epoch": "2025-12-22T17:53:19.962816",
        "meta_mean_motion": 13.61281478,
        "meta_eccentricity": 0.02444249,
        "meta_inclination": 100.486,
        "meta_ra_of_asc_node": 186.4677,
        "meta_arg_of_pericenter": 28.7327,
        "meta_mean_anomaly": 332.7029,
        "meta_ephemeris_type": 0,
        "meta_classification_type": "U",
        "meta_norad_cat_id": 31991,
        "meta_element_set_no": 999,
        "meta_rev_at_epoch": 62223,
        "meta_bstar": 0.00015589041,
        "meta_mean_motion_dot": 9.4e-07,
        "meta_mean_motion_ddot": 0,
        "tle_line1": "1 31991U 99025CPU 25356.74536994  .00000094  00000+0  15589-3 0  9999",
        "tle_line2": "2 31991 100.4860 186.4677 0244424  28.7327 332.7029 13.61281478622234"
      },
      "geometry": {
        "type": "Point",
        "coordinates": [
          -163.69070280030792,
          -34.25808862822398
        ]
      }
    },
    {
      "type": "Feature",
      "properties": {
        "norad_id": 31992,
        "name": "FENGYUN 1C DEB",
        "group": "fengyun-1c-debris",
        "lat": -63.61843205676905,
        "lon": -23.416352747740977,
        "alt_km": 987.183214952367,
        "timestamp": "2025-12-25T03:55:56.643337+00:00",
        "meta_object_name": "FENGYUN 1C DEB",
        "meta_object_id": "1999-025CPV",
        "meta_epoch": "2025-12-22T03:38:18.593376",
        "meta_mean_motion": 13.23012491,
        "meta_eccentricity": 0.05423471,
        "meta_inclination": 99.1671,
        "meta_ra_of_asc_node": 314.9253,
        "meta_arg_of_pericenter": 6.8292,
        "meta_mean_anomaly": 353.9851,
        "meta_ephemeris_type": 0,
        "meta_classification_type": "U",
        "meta_norad_cat_id": 31992,
        "meta_element_set_no": 999,
        "meta_rev_at_epoch": 53999,
        "meta_bstar": 0.0012055765,
        "meta_mean_motion_dot": 1.073e-05,
        "meta_mean_motion_ddot": 0,
        "tle_line1": "1 31992U 99025CPV 25356.15160409  .00001073  00000+0  12056-2 0  9992",
        "tle_line2": "2 31992  99.1671 314.9253 0542347   6.8292 353.9851 13.23012491539993"
      },
      "geometry": {
        "type": "Point",
        "coordinates": [
          -23.416352747740977,
          -63.61843205676905
        ]
      }
    },
    {
      "type": "Feature",
      "properties": {
        "norad_id": 31993,
        "name": "FENGYUN 1C DEB",
        "group": "fengyun-1c-debris",
        "lat": -0.3690896281969433,
        "lon": 150.06423687173395,
        "alt_km": 1066.292518896691,
        "timestamp": "2025-12-25T03:55:56.643347+00:00",
        "meta_object_name": "FENGYUN 1C DEB",
        "meta_object_id": "1999-025CPW",
        "meta_epoch": "2025-12-24T16:13:16.260096",
        "meta_mean_motion": 13.27487792,
        "meta_eccentricity": 0.0423211,
        "meta_inclination": 99.2398,
        "meta_ra_of_asc_node": 329.6876,
        "meta_arg_of_pericenter": 106.0235,
        "meta_mean_anomaly": 258.7919,
        "meta_ephemeris_type": 0,
        "meta_classification_type": "U",
        "meta_norad_cat_id": 31993,
        "meta_element_set_no": 999,
        "meta_rev_at_epoch": 89101,
        "meta_bstar": 0.0023118,
        "meta_mean_motion_dot": 1.659e-05,
        "meta_mean_motion_ddot": 0,
        "tle_line1": "1 31993U 99025CPW 25358.67588264  .00001659  00000+0  23118-2 0  9996",
        "tle_line2": "2 31993  99.2398 329.6876 0423211 106.0235 258.7919 13.27487792891018"
      },
      "geometry": {
        "type": "Point",
        "coordinates": [
          150.06423687173395,
          -0.3690896281969433
        ]
      }
    },
    {
      "type": "Feature",
      "properties": {
        "norad_id": 31994,
        "name": "FENGYUN 1C DEB",
        "group": "fengyun-1c-debris",
        "lat": -5.239026903909381,
        "lon": 171.64978356732703,
        "alt_km": 876.8365218011177,
        "timestamp": "2025-12-25T03:55:56.643359+00:00",
        "meta_object_name": "FENGYUN 1C DEB",
        "meta_object_id": "1999-025CPX",
        "meta_epoch": "2025-12-18T05:54:00.814464",
        "meta_mean_motion": 13.95758705,
        "meta_eccentricity": 0.01625274,
        "meta_inclination": 98.539,
        "meta_ra_of_asc_node": 346.0233,
        "meta_arg_of_pericenter": 130.8306,
        "meta_mean_anomaly": 230.708,
        "meta_ephemeris_type": 0,
        "meta_classification_type": "U",
        "meta_norad_cat_id": 31994,
        "meta_element_set_no": 999,
        "meta_rev_at_epoch": 56873,
        "meta_bstar": -7.0824309e-05,
        "meta_mean_motion_dot": -1.46e-06,
        "meta_mean_motion_ddot": 0,
        "tle_line1": "1 31994U 99025CPX 25352.24584276 -.00000146  00000+0 -70824-4 0  9993",
        "tle_line2": "2 31994  98.5390 346.0233 0162527 130.8306 230.7080 13.95758705568736"
      },
      "geometry": {
        "type": "Point",
        "coordinates": [
          171.64978356732703,
          -5.239026903909381
        ]
      }
    },
    {
      "type": "Feature",
      "properties": {
        "norad_id": 31997,
        "name": "FENGYUN 1C DEB",
        "group": "fengyun-1c-debris",
        "lat": 30.952770418748706,
        "lon": 38.450154316531936,
        "alt_km": 1207.9286295396896,
        "timestamp": "2025-12-25T03:55:56.643372+00:00",
        "meta_object_name": "FENGYUN 1C DEB",
        "meta_object_id": "1999-025CQA",
        "meta_epoch": "2025-12-20T23:11:18.732192",
        "meta_mean_motion": 13.60709267,
        "meta_eccentricity": 0.02907852,
        "meta_inclination": 102.5098,
        "meta_ra_of_asc_node": 40.7426,
        "meta_arg_of_pericenter": 255.2897,
        "meta_mean_anomaly": 101.584,
        "meta_ephemeris_type": 0,
        "meta_classification_type": "U",
        "meta_norad_cat_id": 31997,
        "meta_element_set_no": 999,
        "meta_rev_at_epoch": 61795,
        "meta_bstar": 0.0020865272,
        "meta_mean_motion_dot": 2.017e-05,
        "meta_mean_motion_ddot": 0,
        "tle_line1": "1 31997U 99025CQA 25354.96618903  .00002017  00000+0  20865-2 0  9997",
        "tle_line2": "2 31997 102.5098  40.7426 0290785 255.2897 101.5840 13.60709267617956"
      },
      "geometry": {
        "type": "Point",
        "coordinates": [
          38.450154316531936,
          30.952770418748706
        ]
      }
    },
    {
      "type": "Feature",
      "properties": {
        "norad_id": 32086,
        "name": "FENGYUN 1C DEB",
        "group": "fengyun-1c-debris",
        "lat": -75.36336513903203,
        "lon": 92.31514357276257,
        "alt_km": 1230.9973399179316,
        "timestamp": "2025-12-25T03:55:56.643382+00:00",
        "meta_object_name": "FENGYUN 1C DEB",
        "meta_object_id": "1999-025CQC",
        "meta_epoch": "2025-12-23T20:45:31.853664",
        "meta_mean_motion": 13.68944984,
        "meta_eccentricity": 0.029869,
        "meta_inclination": 99.2686,
        "meta_ra_of_asc_node": 52.364,
        "meta_arg_of_pericenter": 106.7235,
        "meta_mean_anomaly": 256.6913,
        "meta_ephemeris_type": 0,
        "meta_classification_type": "U",
        "meta_norad_cat_id": 32086,
        "meta_element_set_no": 999,
        "meta_rev_at_epoch": 61933,
        "meta_bstar": 0.0021459,
        "meta_mean_motion_dot": 2.491e-05,
        "meta_mean_motion_ddot": 0,
        "tle_line1": "1 32086U 99025CQC 25357.86495201  .00002491  00000+0  21459-2 0  9999",
        "tle_line2": "2 32086  99.2686  52.3640 0298690 106.7235 256.6913 13.68944984619339"
      },
      "geometry": {
        "type": "Point",
        "coordinates": [
          92.31514357276257,
          -75.36336513903203
        ]
      }
    }
  ]
}